INTELSAT 37E (IS-37E)   
1 42950U 17059A   23347.48239479 -.00000115  00000+0  00000+0 0  9993
2 42950   0.0178   5.2029 0002464 252.7094 339.6817  1.00271662 22850
AZERSPACE 2 (IS-38)     
1 43632U 18074A   23347.17896444  .00000163  00000+0  00000+0 0  9998
2 43632   0.0176   4.5612 0001152 261.4832 285.1054  1.00270781 19244
HORIZONS-3E             
1 43633U 18074B   23347.17604133 -.00000004  00000+0  00000+0 0  9996
2 43633   0.0236 158.5514 0000538 146.3015   9.1474  1.00270744 19120
AT&T T-16               
1 44333U 19034A   23347.49637001 -.00000090  00000+0  00000+0 0  9991
2 44333   0.0171 354.7120 0000971 111.4028  53.6440  1.00268281 16438
INTELSAT 39 (IS-39)     
1 44476U 19049B   23347.05049400  .00000060  00000+0  00000+0 0  9993
2 44476   0.0166 331.7483 0001162 161.3403  28.5315  1.00270476 15936
GALAXY 30 (G-30)        
1 46114U 20056C   23346.68780081  .00000065  00000+0  00000+0 0  9994
2 46114   0.0153  41.8272 0001834 203.1693 318.7595  1.00268911 12099
GALAXY 33 (G-33)        
1 54026U 22128A   23346.90100655  .00000106  00000+0  00000+0 0  9991
2 54026   0.0119 324.6212 0001609 291.8974  16.1866  1.00271164  4550
GALAXY 34 (G-34)        
1 54027U 22128B   23346.97032586  .00000086  00000+0  00000+0 0  9993
2 54027   0.0271 333.1055 0001483 276.8095  51.8647  1.00271248  4711
GALAXY 31 (G-31)        
1 54243U 22153A   23347.47648146  .00000038  00000+0  00000+0 0  9999
2 54243   0.0164 315.6696 0002442 318.4755 218.3051  1.00271960  3966
GALAXY 32 (G-32)        
1 54244U 22153B   23347.41082876 -.00000149  00000+0  00000+0 0  9990
2 54244   0.0113 339.5490 0002026 338.1103 181.0835  1.00270779  3976
GALAXY 35 (G-35)        
1 54741U 22170A   23346.90901264 -.00000135  00000+0  00000+0 0  9990
2 54741   0.0013  10.9135 0001297 260.2659  44.3186  1.00271000  3690
GALAXY 36 (G-36)        
1 54742U 22170B   23347.41126389 -.00000160  00000+0  00000+0 0  9993
2 54742   0.0225 355.9340 0000915 107.0842  37.8742  1.00269841  3723
GALAXY 37 (G-37)        
1 57493U 23112A   23346.90231189  .00000075  00000+0  00000+0 0  9998
2 57493   0.0142 340.5500 0001675 278.2449  20.3928  1.00271700  1349
